ONEWEB-0435             
1 51632U 22012L   26198.89061252  .00000203  00000+0  54461-3 0  9990
2 51632  87.8817  30.1573 0001918  98.0824 262.0521 13.10379474213336
ONEWEB-0436             
1 51633U 22012M   26198.89042356  .00000064  00000+0  13185-3 0  9998
2 51633  87.9155 359.7397 0001937  99.4555 260.6795 13.17647816217723
ONEWEB-0438             
1 51634U 22012N   26198.95167876 -.00000725  00000+0 -21129-2 0  9993
2 51634  87.8815  30.1493 0001781  81.0625 279.0704 13.10375291213374
ONEWEB-0439             
1 51635U 22012P   26198.95508358 -.00000413  00000+0 -12193-2 0  9993
2 51635  87.8820  30.1362 0001742  86.9236 273.2090 13.10377176213351
ONEWEB-0442             
1 51636U 22012Q   26198.88283465  .00000038  00000+0  64521-4 0  9990
2 51636  87.9147 359.7715 0001654  75.0886 285.0429 13.17650790217713
ONEWEB-0443             
1 51637U 22012R   26198.90223415  .00000036  00000+0  60064-4 0  9999
2 51637  87.9149 359.7687 0001538  99.2941 260.8365 13.17647621217769
ONEWEB-0444             
1 51638U 22012S   26198.48674809 -.00000804  00000+0 -23401-2 0  9997
2 51638  87.8819  30.2281 0001663  91.3776 268.7542 13.10374233213301
ONEWEB-0445             
1 51639U 22012T   26198.50711727  .00000251  00000+0  68148-3 0  9994
2 51639  87.8825  30.2141 0001930  86.1012 274.0336 13.10379897213319
ONEWEB-0446             
1 51640U 22012U   26198.94319390 -.00000663  00000+0 -19360-2 0  9994
2 51640  87.8816  30.1542 0002104  82.3713 277.7653 13.10371669213350
ONEWEB-0448             
1 51641U 22012V   26198.94828507 -.00000840  00000+0 -24425-2 0  9995
2 51641  87.8815  30.1486 0001795  88.6320 271.5013 13.10374638213323
ONEWEB-0449             
1 51642U 22012W   26198.95337850 -.00000605  00000+0 -17693-2 0  9991
2 51642  87.8822  30.1351 0001790  68.8552 291.2767 13.10374747213332
ONEWEB-0451             
1 51643U 22012X   26198.88703948 -.00000025  00000+0 -96354-4 0  9998
2 51643  87.9158 359.7387 0001674  89.5908 270.5416 13.17650598217705
ONEWEB-0452             
1 51644U 22012Y   26198.88536202  .00000035  00000+0  58017-4 0  9999
2 51644  87.9147 359.7731 0001570  93.0007 267.1304 13.17647216217714
ONEWEB-0456             
1 51646U 22012AA  26198.27464566  .00000029  00000+0  47723-4 0  9992
2 51646  87.8832  30.2596 0001824  92.6186 267.5151 13.10375412213282
ONEWEB-0457             
1 51647U 22012AB  26198.93966786 -.00000593  00000+0 -17358-2 0  9994
2 51647  87.8815  30.1422 0002063  78.9450 281.1909 13.10371177213375
ONEWEB-0458             
1 51648U 22012AC  26198.80831042 -.00000133  00000+0 -41787-3 0  9991
2 51648  87.8823  30.1571 0001620  87.3231 272.8081 13.10376263213312
